CCSDS_OMM_VERS = 2.0
CREATION_DATE  = 
ORIGINATOR     = 

OBJECT_NAME    = SL-3 R/B
OBJECT_ID      = 1982-079B
CENTER_NAME    = EARTH
REF_FRAME      = TEME
TIME_SYSTEM    = UTC
MEAN_ELEMENT_THEORY = SGP/SGP4

EPOCH          = 2026-03-31T04:32:21.707232
MEAN_MOTION    = 15.25086770
ECCENTRICITY   = .00254841
INCLINATION    = 81.1485
RA_OF_ASC_NODE = 167.6916
ARG_OF_PERICENTER = 94.1664
MEAN_ANOMALY   = 266.2483

EPHEMERIS_TYPE = 0
CLASSIFICATION_TYPE = U
NORAD_CAT_ID   = 13403
ELEMENT_SET_NO = 999
REV_AT_EPOCH   = 38097
BSTAR          = .2488923E-3
MEAN_MOTION_DOT = .631E-4
MEAN_MOTION_DDOT = 0

CCSDS_OMM_VERS = 2.0
CREATION_DATE  = 
ORIGINATOR     = 

OBJECT_NAME    = SL-14 R/B
OBJECT_ID      = 1982-092B
CENTER_NAME    = EARTH
REF_FRAME      = TEME
TIME_SYSTEM    = UTC
MEAN_ELEMENT_THEORY = SGP/SGP4

EPOCH          = 2026-03-31T04:23:22.740576
MEAN_MOTION    = 14.86686077
ECCENTRICITY   = .0019172
INCLINATION    = 82.5655
RA_OF_ASC_NODE = 121.2923
ARG_OF_PERICENTER = 226.8350
MEAN_ANOMALY   = 202.2632

EPHEMERIS_TYPE = 0
CLASSIFICATION_TYPE = U
NORAD_CAT_ID   = 13553
ELEMENT_SET_NO = 999
REV_AT_EPOCH   = 33212
BSTAR          = .62312669E-4
MEAN_MOTION_DOT = .58E-5
MEAN_MOTION_DDOT = 0

CCSDS_OMM_VERS = 2.0
CREATION_DATE  = 
ORIGINATOR     = 

OBJECT_NAME    = SL-3 R/B
OBJECT_ID      = 1983-010B
CENTER_NAME    = EARTH
REF_FRAME      = TEME
TIME_SYSTEM    = UTC
MEAN_ELEMENT_THEORY = SGP/SGP4

EPOCH          = 2026-03-31T04:11:12.427296
MEAN_MOTION    = 15.47083831
ECCENTRICITY   = .00157552
INCLINATION    = 81.1052
RA_OF_ASC_NODE = 335.8952
ARG_OF_PERICENTER = 337.2346
MEAN_ANOMALY   = 22.8198

EPHEMERIS_TYPE = 0
CLASSIFICATION_TYPE = U
NORAD_CAT_ID   = 13819
ELEMENT_SET_NO = 999
REV_AT_EPOCH   = 36126
BSTAR          = .33668614E-3
MEAN_MOTION_DOT = .17169E-3
MEAN_MOTION_DDOT = 0

CCSDS_OMM_VERS = 2.0
CREATION_DATE  = 
ORIGINATOR     = 

OBJECT_NAME    = SL-3 R/B
OBJECT_ID      = 1983-075B
CENTER_NAME    = EARTH
REF_FRAME      = TEME
TIME_SYSTEM    = UTC
MEAN_ELEMENT_THEORY = SGP/SGP4

EPOCH          = 2026-03-31T05:06:56.496960
MEAN_MOTION    = 15.38930649
ECCENTRICITY   = .0022494
INCLINATION    = 97.6133
RA_OF_ASC_NODE = 95.6136
ARG_OF_PERICENTER = 148.3770
MEAN_ANOMALY   = 211.8832

EPHEMERIS_TYPE = 0
CLASSIFICATION_TYPE = U
NORAD_CAT_ID   = 14208
ELEMENT_SET_NO = 999
REV_AT_EPOCH   = 33346
BSTAR          = .34616714E-3
MEAN_MOTION_DOT = .13371E-3
MEAN_MOTION_DDOT = 0

CCSDS_OMM_VERS = 2.0
CREATION_DATE  = 
ORIGINATOR     = 

OBJECT_NAME    = COSMOS 1536
OBJECT_ID      = 1984-013A
CENTER_NAME    = EARTH
REF_FRAME      = TEME
TIME_SYSTEM    = UTC
MEAN_ELEMENT_THEORY = SGP/SGP4

EPOCH          = 2026-03-31T06:09:20.202048
MEAN_MOTION    = 15.24123625
ECCENTRICITY   = .00136554
INCLINATION    = 82.5411
RA_OF_ASC_NODE = 86.4008
ARG_OF_PERICENTER = 198.8776
MEAN_ANOMALY   = 161.1957

EPHEMERIS_TYPE = 0
CLASSIFICATION_TYPE = U
NORAD_CAT_ID   = 14699
ELEMENT_SET_NO = 999
REV_AT_EPOCH   = 27590
BSTAR          = .37227642E-3
MEAN_MOTION_DOT = .9104E-4
MEAN_MOTION_DDOT = 0

CCSDS_OMM_VERS = 2.0
CREATION_DATE  = 
ORIGINATOR     = 

OBJECT_NAME    = SL-14 R/B
OBJECT_ID      = 1984-027B
CENTER_NAME    = EARTH
REF_FRAME      = TEME
TIME_SYSTEM    = UTC
MEAN_ELEMENT_THEORY = SGP/SGP4

EPOCH          = 2026-03-31T07:23:57.174432
MEAN_MOTION    = 14.86000124
ECCENTRICITY   = .00164896
INCLINATION    = 82.5422
RA_OF_ASC_NODE = 224.7358
ARG_OF_PERICENTER = 261.1563
MEAN_ANOMALY   = 98.7786

EPHEMERIS_TYPE = 0
CLASSIFICATION_TYPE = U
NORAD_CAT_ID   = 14820
ELEMENT_SET_NO = 999
REV_AT_EPOCH   = 25084
BSTAR          = .81402521E-4
MEAN_MOTION_DOT = .737E-5
MEAN_MOTION_DDOT = 0

CCSDS_OMM_VERS = 2.0
CREATION_DATE  = 
ORIGINATOR     = 

OBJECT_NAME    = SL-8 R/B
OBJECT_ID      = 1985-006B
CENTER_NAME    = EARTH
REF_FRAME      = TEME
TIME_SYSTEM    = UTC
MEAN_ELEMENT_THEORY = SGP/SGP4

EPOCH          = 2026-03-30T19:40:24.235680
MEAN_MOTION    = 14.37798599
ECCENTRICITY   = .00176029
INCLINATION    = 74.0455
RA_OF_ASC_NODE = 222.2648
ARG_OF_PERICENTER = 133.9281
MEAN_ANOMALY   = 337.2974

EPHEMERIS_TYPE = 0
CLASSIFICATION_TYPE = U
NORAD_CAT_ID   = 15483
ELEMENT_SET_NO = 999
REV_AT_EPOCH   = 15706
BSTAR          = .13042731E-3
MEAN_MOTION_DOT = .367E-5
MEAN_MOTION_DDOT = 0

CCSDS_OMM_VERS = 2.0
CREATION_DATE  = 
ORIGINATOR     = 

OBJECT_NAME    = SL-12 R/B(2)
OBJECT_ID      = 1985-042D
CENTER_NAME    = EARTH
REF_FRAME      = TEME
TIME_SYSTEM    = UTC
MEAN_ELEMENT_THEORY = SGP/SGP4

EPOCH          = 2026-03-31T07:23:30.312672
MEAN_MOTION    = 14.21988631
ECCENTRICITY   = .00328524
INCLINATION    = 71.1093
RA_OF_ASC_NODE = 42.0527
ARG_OF_PERICENTER = 92.2715
MEAN_ANOMALY   = 59.5144

EPHEMERIS_TYPE = 0
CLASSIFICATION_TYPE = U
NORAD_CAT_ID   = 15772
ELEMENT_SET_NO = 999
REV_AT_EPOCH   = 11746
BSTAR          = .63875196E-4
MEAN_MOTION_DOT = .94E-6
MEAN_MOTION_DDOT = 0

CCSDS_OMM_VERS = 2.0
CREATION_DATE  = 
ORIGINATOR     = 

OBJECT_NAME    = SL-14 R/B
OBJECT_ID      = 1985-069B
CENTER_NAME    = EARTH
REF_FRAME      = TEME
TIME_SYSTEM    = UTC
MEAN_ELEMENT_THEORY = SGP/SGP4

EPOCH          = 2026-03-31T05:15:37.404288
MEAN_MOTION    = 14.86456742
ECCENTRICITY   = .00201448
INCLINATION    = 82.5305
RA_OF_ASC_NODE = 4.6942
ARG_OF_PERICENTER = 118.7356
MEAN_ANOMALY   = 241.5888

EPHEMERIS_TYPE = 0
CLASSIFICATION_TYPE = U
NORAD_CAT_ID   = 15945
ELEMENT_SET_NO = 999
REV_AT_EPOCH   = 17603
BSTAR          = .69335146E-4
MEAN_MOTION_DOT = .639E-5
MEAN_MOTION_DDOT = 0

CCSDS_OMM_VERS = 2.0
CREATION_DATE  = 
ORIGINATOR     = 

OBJECT_NAME    = SL-16 R/B
OBJECT_ID      = 1985-097B
CENTER_NAME    = EARTH
REF_FRAME      = TEME
TIME_SYSTEM    = UTC
MEAN_ELEMENT_THEORY = SGP/SGP4

EPOCH          = 2026-03-31T07:14:32.652384
MEAN_MOTION    = 14.16603306
ECCENTRICITY   = .00093867
INCLINATION    = 71.0007
RA_OF_ASC_NODE = 95.0520
ARG_OF_PERICENTER = 234.5073
MEAN_ANOMALY   = 136.3870

EPHEMERIS_TYPE = 0
CLASSIFICATION_TYPE = U
NORAD_CAT_ID   = 16182
ELEMENT_SET_NO = 999
REV_AT_EPOCH   = 9029
BSTAR          = -.53828672E-4
MEAN_MOTION_DOT = -.155E-5
MEAN_MOTION_DDOT = 0

CCSDS_OMM_VERS = 2.0
CREATION_DATE  = 
ORIGINATOR     = 

OBJECT_NAME    = SL-14 R/B
OBJECT_ID      = 1986-006B
CENTER_NAME    = EARTH
REF_FRAME      = TEME
TIME_SYSTEM    = UTC
MEAN_ELEMENT_THEORY = SGP/SGP4

EPOCH          = 2026-03-31T02:57:43.523424
MEAN_MOTION    = 14.86850999
ECCENTRICITY   = .00759752
INCLINATION    = 82.5254
RA_OF_ASC_NODE = 239.5600
ARG_OF_PERICENTER = 200.6267
MEAN_ANOMALY   = 159.1880

EPHEMERIS_TYPE = 0
CLASSIFICATION_TYPE = U
NORAD_CAT_ID   = 16496
ELEMENT_SET_NO = 999
REV_AT_EPOCH   = 15239
BSTAR          = .12744254E-3
MEAN_MOTION_DOT = .1224E-4
MEAN_MOTION_DDOT = 0

CCSDS_OMM_VERS = 2.0
CREATION_DATE  = 
ORIGINATOR     = 

OBJECT_NAME    = COSMOS 1743
OBJECT_ID      = 1986-034A
CENTER_NAME    = EARTH
REF_FRAME      = TEME
TIME_SYSTEM    = UTC
MEAN_ELEMENT_THEORY = SGP/SGP4

EPOCH          = 2026-03-31T03:19:56.454240
MEAN_MOTION    = 15.60393696
ECCENTRICITY   = .0004887
INCLINATION    = 82.5305
RA_OF_ASC_NODE = 51.2883
ARG_OF_PERICENTER = 165.1307
MEAN_ANOMALY   = 195.0094

EPHEMERIS_TYPE = 0
CLASSIFICATION_TYPE = U
NORAD_CAT_ID   = 16719
ELEMENT_SET_NO = 999
REV_AT_EPOCH   = 18359
BSTAR          = .7196E-3
MEAN_MOTION_DOT = .59362E-3
MEAN_MOTION_DDOT = 0

